TDRS 13                 
1 42915U 17047A   26188.57055811 -.00000086  00000+0  00000+0 0  9990
2 42915   3.4567   3.2064 0014937 110.4370   5.8886  1.00271884 32554
QZS-3 (MICHIBIKI-3)     
1 42917U 17048A   26188.02757977 -.00000334  00000+0  00000+0 0  9991
2 42917   0.0805 222.7686 0001887 245.8122 313.2924  1.00263910 32459
AMAZONAS 5              
1 42934U 17053A   26188.20424470 -.00000267  00000+0  00000+0 0  9990
2 42934   0.0317 325.8954 0001291 108.3435 223.4694  1.00270213 32245
ASIASAT 9               
1 42942U 17057A   26188.59693977  .00000000  00000+0  00000+0 0  9999
2 42942   0.0471  66.7051 0002280  29.9437 165.9696  1.00263783 32069
INTELSAT 37E (IS-37E)   
1 42950U 17059A   26188.42663670  .00000000  00000+0  00000+0 0  9999
2 42950   0.0221  36.2109 0002530  78.7211 306.0583  1.00269797 32263
BSAT-4A                 
1 42951U 17059B   26187.83159497 -.00000335  00000+0  00000+0 0  9993
2 42951   0.0334 353.2761 0003654  83.7454 256.9939  1.00272864 31994
QZS-4 (MICHIBIKI-4)     
1 42965U 17062A   26188.31318925 -.00000308  00000+0  00000+0 0  9999
2 42965  40.0971 343.2309 0747233 268.3911 285.0425  1.00292859 32006
SES-11 (ECHOSTAR 105)   
1 42967U 17063A   26188.55201135 -.00000074  00000+0  00000+0 0  9992
2 42967   0.0138   2.7492 0002689 105.7060 270.8369  1.00271004 31925
KOREASAT 5A             
1 42984U 17067A   26188.59520644 -.00000343  00000+0  00000+0 0  9997
2 42984   0.0087 336.9421 0000977 127.7610 148.2826  1.00272026 31734
ALCOMSAT 1              
1 43039U 17078A   26188.35398047 -.00000171  00000+0  00000+0 0  9994
2 43039   0.0252  88.4996 0002318  20.4662 279.0013  1.00272254 31490
SBIRS GEO-3 (USA 282)   
1 43162U 18009A   26188.54126463  .00000142  00000+0  00000+0 0  9995
2 43162   2.1979  13.0031 0001935  93.1116 214.8532  1.00271974 31047
AL YAH 3                
1 43174U 18012A   26188.42620337 -.00000141  00000+0  00000+0 0  9998
2 43174   1.6007  82.8727 0003697  22.9934 312.8549  1.00271971 31041
SES-14                  
1 43175U 18012B   26188.49212086 -.00000263  00000+0  00000+0 0  9999
2 43175   0.0145  30.8453 0001024  77.5369 306.7388  1.00270244  7225
GOES 17                 
1 43226U 18022A   26188.55504470 -.00000168  00000+0  00000+0 0  9999
2 43226   0.9858  85.3868 0000610  61.4399 249.0168  1.00271827 30625
HISPASAT 30W-6          
1 43228U 18023A   26188.18794694 -.00000201  00000+0  00000+0 0  9998
2 43228   0.0435  48.1203 0005465  37.6040 237.1049  1.00270813 30608
SUPERBIRD-B3            
1 43271U 18033A   26188.50405874 -.00000077  00000+0  00000+0 0  9993
2 43271   0.0278 284.6714 0001174 207.1410 137.1338  1.00271290 30265
HYLAS 4                 
1 43272U 18033B   26188.18794694 -.00000218  00000+0  00000+0 0  9996
2 43272   0.0120 310.1039 0001085 174.9560 194.2565  1.00271790 30266
IRNSS-1I                
1 43286U 18035A   26187.83739038  .00000079  00000+0  00000+0 0  9999
2 43286  28.7973  73.8917 0018087 180.4002  27.0525  1.00279237 30279
USA 283                 
1 43339U 18036A   26182.46854735  .00000000  00000+0  00000+0 0  9999
2 43339   0.0077  35.3198 0000064   9.2412 177.7500  1.00269042 25430
COSMOS 2526             
1 43432U 18037A   26188.74071648 -.00000329  00000+0  00000+0 0  9990
2 43432   0.0320  91.9374 0000460 132.6292  95.8532  1.00275719 30165
APSTAR-6C               
1 43450U 18041A   26188.67060137 -.00000302  00000+0  00000+0 0  9999
2 43450   0.0302 325.6683 0000433 348.6028 346.7929  1.00272275 30017
BANGABANDHUSAT-1        
1 43463U 18044A   26187.80956645  .00000000  00000+0  00000+0 0  9992
2 43463   0.0137  45.5309 0001588  60.8648 228.9336  1.00267173 29903
SES-12                  
1 43488U 18049A   26188.59932167 -.00000254  00000+0  00000+0 0  9996
2 43488   0.0112   5.8321 0000771 242.6367 347.8486  1.00269354 29626
FENGYUN 2H              
1 43491U 18050A   26188.58844642 -.00000115  00000+0  00000+0 0  9997
2 43491   3.0805  78.8411 0002022 124.4991  13.2977  1.00268540 29640
BEIDOU-2 IGSO-7         
1 43539U 18057A   26182.89122331 -.00000033  00000+0  00000+0 0  9998
2 43539  55.1981 162.9292 0104946 237.8611 308.6338  1.00246939 29273
TELSTAR 19V             
1 43562U 18059A   26188.20389802 -.00000265  00000+0  00000+0 0  9992
2 43562   0.0412 195.7372 0002900 292.1062 167.7348  1.00269748 29347
TELKOM 4 (MERAH PUTIH)  
1 43587U 18064A   26188.65454874  .00000000  00000+0  00000+0 0  9992
2 43587   0.0224  43.8973 0001611 106.6997 118.6615  1.00268047 29083
TELSTAR 18V             
1 43611U 18069A   26188.62856965 -.00000278  00000+0  00000+0 0  9997
2 43611   0.0248 286.3207 0001857 182.5760 180.9957  1.00271098 28848
AZERSPACE 2 (IS-38)     
1 43632U 18074A   26188.58173816  .00000000  00000+0  00000+0 0  9990
2 43632   0.0221  26.1370 0001247  91.4983  62.4482  1.00270746 28656
HORIZONS-3E             
1 43633U 18074B   26187.89338350 -.00000016  00000+0  00000+0 0  9998
2 43633   0.0376 227.4998 0000860  64.0191 123.9783  1.00269288 28530
AEHF-4 (USA 288)        
1 43651U 18079A   26188.55946472 -.00000260  00000+0  00000+0 0  9998
2 43651   1.4385   5.6108 0059552 354.9337  58.7060  1.00265361 28507
BEIDOU-3 G1             
1 43683U 18085A   26188.61492804 -.00000095  00000+0  00000+0 0  9998
2 43683   2.9170  96.8357 0008442 354.4192 215.6296  1.00273524 28262
