OBJECT_NAME,OBJECT_ID,EPOCH,MEAN_MOTION,ECCENTRICITY,INCLINATION,RA_OF_ASC_NODE,ARG_OF_PERICENTER,MEAN_ANOMALY,EPHEMERIS_TYPE,CLASSIFICATION_TYPE,NORAD_CAT_ID,ELEMENT_SET_NO,REV_AT_EPOCH,BSTAR,MEAN_MOTION_DOT,MEAN_MOTION_DDOT
TDRS 13,2017-047A,2026-07-07T13:41:36.220704,1.00271884,.0014937,3.4567,3.2064,110.4370,5.8886,0,U,42915,999,3255,0,-.86E-6,0
QZS-3 (MICHIBIKI-3),2017-048A,2026-07-07T00:39:42.892128,1.00263910,.00018877,0.0805,222.7686,245.8122,313.2924,0,U,42917,999,3245,0,-.334E-5,0
AMAZONAS 5,2017-053A,2026-07-07T04:54:06.742080,1.00270213,.00012917,0.0317,325.8954,108.3435,223.4694,0,U,42934,999,3224,0,-.267E-5,0
ASIASAT 9,2017-057A,2026-07-07T14:19:35.596128,1.00263783,.000228,0.0471,66.7051,29.9437,165.9696,0,U,42942,999,3206,0,0,0
INTELSAT 37E (IS-37E),2017-059A,2026-07-07T10:14:21.410880,1.00269797,.00025303,0.0221,36.2109,78.7211,306.0583,0,U,42950,999,3226,0,0,0
BSAT-4A,2017-059B,2026-07-06T19:57:29.805408,1.00272864,.00036544,0.0334,353.2761,83.7454,256.9939,0,U,42951,999,3199,0,-.335E-5,0
QZS-4 (MICHIBIKI-4),2017-062A,2026-07-07T07:30:59.551200,1.00292859,.07472333,40.0971,343.2309,268.3911,285.0425,0,U,42965,999,3200,0,-.308E-5,0
SES-11 (ECHOSTAR 105),2017-063A,2026-07-07T13:14:53.780640,1.00271004,.00026895,0.0138,2.7492,105.7060,270.8369,0,U,42967,999,3192,0,-.74E-6,0
KOREASAT 5A,2017-067A,2026-07-07T14:17:05.836416,1.00272026,.00009776,0.0087,336.9421,127.7610,148.2826,0,U,42984,999,3173,0,-.343E-5,0
ALCOMSAT 1,2017-078A,2026-07-07T08:29:43.912608,1.00272254,.00023184,0.0252,88.4996,20.4662,279.0013,0,U,43039,999,3149,0,-.171E-5,0
SBIRS GEO-3 (USA 282),2018-009A,2026-07-07T12:59:25.264032,1.00271974,.00019354,2.1979,13.0031,93.1116,214.8532,0,U,43162,999,3104,0,.142E-5,0
AL YAH 3,2018-012A,2026-07-07T10:13:43.971168,1.00271971,.00036971,1.6007,82.8727,22.9934,312.8549,0,U,43174,999,3104,0,-.141E-5,0
SES-14,2018-012B,2026-07-07T11:48:39.242304,1.00270244,.00010244,0.0145,30.8453,77.5369,306.7388,0,U,43175,999,722,0,-.263E-5,0
GOES 17,2018-022A,2026-07-07T13:19:15.862080,1.00271827,.00006103,0.9858,85.3868,61.4399,249.0168,0,U,43226,999,3062,0,-.168E-5,0
HISPASAT 30W-6,2018-023A,2026-07-07T04:30:38.615616,1.00270813,.00054659,0.0435,48.1203,37.6040,237.1049,0,U,43228,999,3060,0,-.201E-5,0
SUPERBIRD-B3,2018-033A,2026-07-07T12:05:50.675136,1.00271290,.00011746,0.0278,284.6714,207.1410,137.1338,0,U,43271,999,3026,0,-.77E-6,0
HYLAS 4,2018-033B,2026-07-07T04:30:38.615616,1.00271790,.00010856,0.0120,310.1039,174.9560,194.2565,0,U,43272,999,3026,0,-.218E-5,0
IRNSS-1I,2018-035A,2026-07-06T20:05:50.528832,1.00279237,.00180874,28.7973,73.8917,180.4002,27.0525,0,U,43286,999,3027,0,.79E-6,0
USA 283,2018-036A,2026-07-01T11:14:42.491040,1.00269042,.0000064,0.0077,35.3198,9.2412,177.7500,0,U,43339,999,2543,0,0,0
COSMOS 2526,2018-037A,2026-07-07T17:46:37.903872,1.00275719,.000046,0.0320,91.9374,132.6292,95.8532,0,U,43432,999,3016,0,-.329E-5,0
APSTAR-6C,2018-041A,2026-07-07T16:05:39.958368,1.00272275,.0000433,0.0302,325.6683,348.6028,346.7929,0,U,43450,999,3001,0,-.302E-5,0
BANGABANDHUSAT-1,2018-044A,2026-07-06T19:25:46.541280,1.00267173,.00015881,0.0137,45.5309,60.8648,228.9336,0,U,43463,999,2990,0,0,0
SES-12,2018-049A,2026-07-07T14:23:01.392288,1.00269354,.0000771,0.0112,5.8321,242.6367,347.8486,0,U,43488,999,2962,0,-.254E-5,0
FENGYUN 2H,2018-050A,2026-07-07T14:07:21.770688,1.00268540,.00020222,3.0805,78.8411,124.4991,13.2977,0,U,43491,999,2964,0,-.115E-5,0
BEIDOU-2 IGSO-7,2018-057A,2026-07-01T21:23:21.693984,1.00246939,.01049468,55.1981,162.9292,237.8611,308.6338,0,U,43539,999,2927,0,-.33E-6,0
TELSTAR 19V,2018-059A,2026-07-07T04:53:36.788928,1.00269748,.00029005,0.0412,195.7372,292.1062,167.7348,0,U,43562,999,2934,0,-.265E-5,0
TELKOM 4 (MERAH PUTIH),2018-064A,2026-07-07T15:42:33.011136,1.00268047,.00016114,0.0224,43.8973,106.6997,118.6615,0,U,43587,999,2908,0,0,0
TELSTAR 18V,2018-069A,2026-07-07T15:05:08.417760,1.00271098,.00018576,0.0248,286.3207,182.5760,180.9957,0,U,43611,999,2884,0,-.278E-5,0
AZERSPACE 2 (IS-38),2018-074A,2026-07-07T13:57:42.177024,1.00270746,.00012476,0.0221,26.1370,91.4983,62.4482,0,U,43632,999,2865,0,0,0
HORIZONS-3E,2018-074B,2026-07-06T21:26:28.334400,1.00269288,.000086,0.0376,227.4998,64.0191,123.9783,0,U,43633,999,2853,0,-.16E-6,0
AEHF-4 (USA 288),2018-079A,2026-07-07T13:25:37.751808,1.00265361,.00595522,1.4385,5.6108,354.9337,58.7060,0,U,43651,999,2850,0,-.26E-5,0
BEIDOU-3 G1,2018-085A,2026-07-07T14:45:29.782656,1.00273524,.00084427,2.9170,96.8357,354.4192,215.6296,0,U,43683,999,2826,0,-.95E-6,0
